[{"OBJECT_NAME":"STARLINK-1759","OBJECT_ID":"2020-062R","EPOCH":"2026-03-10T00:00:02.999808","MEAN_MOTION":15.59261383,"ECCENTRICITY":0.0003276,"INCLINATION":53.0236,"RA_OF_ASC_NODE":329.2132,"ARG_OF_PERICENTER":73.9633,"MEAN_ANOMALY":239.4203,"EPHEMERIS_TYPE":0,"CLASSIFICATION_TYPE":"U","NORAD_CAT_ID":46340,"ELEMENT_SET_NO":999,"REV_AT_EPOCH":588,"BSTAR":0.0015925687,"MEAN_MOTION_DOT":0.00129033,"MEAN_MOTION_DDOT":0},{"OBJECT_NAME":"STARLINK-2113","OBJECT_ID":"2021-005AV","EPOCH":"2026-03-09T22:00:01.999584","MEAN_MOTION":15.5817622,"ECCENTRICITY":0.00052189,"INCLINATION":53.0529,"RA_OF_ASC_NODE":15.2698,"ARG_OF_PERICENTER":117.6872,"MEAN_ANOMALY":84.8234,"EPHEMERIS_TYPE":0,"CLASSIFICATION_TYPE":"U","NORAD_CAT_ID":47392,"ELEMENT_SET_NO":999,"REV_AT_EPOCH":587,"BSTAR":0.0015913714,"MEAN_MOTION_DOT":0.00123694,"MEAN_MOTION_DDOT":0}]
